[{"OBJECT_NAME":"STARLINK-5456","OBJECT_ID":"2023-021AR","EPOCH":"2026-03-09T14:20:41.522784","MEAN_MOTION":14.98329684,"ECCENTRICITY":0.0002996,"INCLINATION":70.0012,"RA_OF_ASC_NODE":164.5749,"ARG_OF_PERICENTER":263.0991,"MEAN_ANOMALY":96.9827,"EPHEMERIS_TYPE":0,"CLASSIFICATION_TYPE":"U","NORAD_CAT_ID":55667,"ELEMENT_SET_NO":999,"REV_AT_EPOCH":16927,"BSTAR":-7.6718e-5,"MEAN_MOTION_DOT":-1.008e-5,"MEAN_MOTION_DDOT":0},{"OBJECT_NAME":"CZ-2C DEB","OBJECT_ID":"2013-035C","EPOCH":"2026-03-09T23:28:11.376480","MEAN_MOTION":14.97090669,"ECCENTRICITY":0.00414021,"INCLINATION":98.2221,"RA_OF_ASC_NODE":340.898,"ARG_OF_PERICENTER":245.2603,"MEAN_ANOMALY":114.4306,"EPHEMERIS_TYPE":0,"CLASSIFICATION_TYPE":"U","NORAD_CAT_ID":39204,"ELEMENT_SET_NO":999,"REV_AT_EPOCH":67473,"BSTAR":0.0018072367,"MEAN_MOTION_DOT":0.00021197,"MEAN_MOTION_DDOT":0}]
